{
  "norad_id": 64853,
  "name": "STARLINK-34676",
  "history": [
    {
      "epoch": "2026-03-28T13:24:11.801952Z",
      "apogee_km": 550.6080354744317,
      "perigee_km": 548.3064115696088,
      "latitude_deg": -1.4647038644115502e-06,
      "longitude_deg": -82.96896347978496,
      "height_km": 552.4924791076148,
      "semi_major_axis_km": 6927.59422352202,
      "eccentricity": 0.00016612,
      "inclination_deg": 97.6022,
      "raan_deg": 304.0574,
      "arg_perigee_deg": 88.6414,
      "mean_anomaly_deg": 271.5003,
      "mean_motion_rev_day": 15.05667582
    },
    {
      "epoch": "2026-03-29T03:45:29.274048Z",
      "apogee_km": 550.6045999532043,
      "perigee_km": 548.2907866656378,
      "latitude_deg": 1.2462651436567774e-06,
      "longitude_deg": 61.70850278849717,
      "height_km": 552.5493705604849,
      "semi_major_axis_km": 6927.584693309421,
      "eccentricity": 0.000167,
      "inclination_deg": 97.602,
      "raan_deg": 304.6472,
      "arg_perigee_deg": 91.9381,
      "mean_anomaly_deg": 268.2037,
      "mean_motion_rev_day": 15.05670689
    },
    {
      "epoch": "2026-03-30T02:05:16.576224Z",
      "apogee_km": 550.5882860231823,
      "perigee_km": 548.3506691309249,
      "latitude_deg": -6.29913006643906e-05,
      "longitude_deg": 86.76246689164996,
      "height_km": 552.4893019159347,
      "semi_major_axis_km": 6927.606477577054,
      "eccentricity": 0.0001615,
      "inclination_deg": 97.6025,
      "raan_deg": 305.5653,
      "arg_perigee_deg": 87.8082,
      "mean_anomaly_deg": 272.3329,
      "mean_motion_rev_day": 15.05663587
    },
    {
      "epoch": "2026-03-30T02:05:16.577088Z",
      "apogee_km": 550.5880781949891,
      "perigee_km": 548.3508769591199,
      "latitude_deg": -5.9564609055515854e-05,
      "longitude_deg": 86.76246282692979,
      "height_km": 552.4893098652444,
      "semi_major_axis_km": 6927.606477577054,
      "eccentricity": 0.00016147,
      "inclination_deg": 97.6025,
      "raan_deg": 305.5653,
      "arg_perigee_deg": 87.8082,
      "mean_anomaly_deg": 272.3329,
      "mean_motion_rev_day": 15.05663587
    },
    {
      "epoch": "2026-03-30T13:15:10.471392Z",
      "apogee_km": 550.6810723153849,
      "perigee_km": 548.2692934100442,
      "latitude_deg": -1.585389036993978e-05,
      "longitude_deg": -80.71353108881866,
      "height_km": 552.5582249181266,
      "semi_major_axis_km": 6927.612182862715,
      "eccentricity": 0.00017407,
      "inclination_deg": 97.6022,
      "raan_deg": 306.0224,
      "arg_perigee_deg": 90.9804,
      "mean_anomaly_deg": 269.1622,
      "mean_motion_rev_day": 15.05661727
    },
    {
      "epoch": "2026-03-31T21:09:10.560672Z",
      "apogee_km": 550.540638657707,
      "perigee_km": 548.4651177501983,
      "latitude_deg": -3.1510242845007925e-05,
      "longitude_deg": 160.78691327768462,
      "height_km": 552.542306861929,
      "semi_major_axis_km": 6927.639878203952,
      "eccentricity": 0.0001498,
      "inclination_deg": 97.6023,
      "raan_deg": 307.3333,
      "arg_perigee_deg": 88.7095,
      "mean_anomaly_deg": 271.4303,
      "mean_motion_rev_day": 15.05652698
    },
    {
      "epoch": "2026-04-01T21:04:41.416896Z",
      "apogee_km": 551.151165608032,
      "perigee_km": 547.9007061585153,
      "latitude_deg": 5.484839852385573e-05,
      "longitude_deg": 161.90796086057944,
      "height_km": 552.6312787528166,
      "semi_major_axis_km": 6927.662935883273,
      "eccentricity": 0.0002346,
      "inclination_deg": 97.6019,
      "raan_deg": 308.3155,
      "arg_perigee_deg": 91.5521,
      "mean_anomaly_deg": 268.5975,
      "mean_motion_rev_day": 15.05645181
    },
    {
      "epoch": "2026-04-02T08:14:35.874528Z",
      "apogee_km": 550.9227651353331,
      "perigee_km": 548.1395051853515,
      "latitude_deg": 6.558439045613195e-05,
      "longitude_deg": -5.569482451620671,
      "height_km": 552.4988726787731,
      "semi_major_axis_km": 6927.668135160342,
      "eccentricity": 0.00020088,
      "inclination_deg": 97.6016,
      "raan_deg": 308.7735,
      "arg_perigee_deg": 86.12,
      "mean_anomaly_deg": 274.0257,
      "mean_motion_rev_day": 15.05643486
    },
    {
      "epoch": "2026-04-03T14:32:54.747744Z",
      "apogee_km": 551.4649754863894,
      "perigee_km": 547.6104172853211,
      "latitude_deg": -2.851291815015678e-05,
      "longitude_deg": -100.14840003679542,
      "height_km": 552.9802602954974,
      "semi_major_axis_km": 6927.674696385855,
      "eccentricity": 0.0002782,
      "inclination_deg": 97.6018,
      "raan_deg": 310.0178,
      "arg_perigee_deg": 101.4278,
      "mean_anomaly_deg": 258.7261,
      "mean_motion_rev_day": 15.05641347
    },
    {
      "epoch": "2026-04-04T14:28:24.505824Z",
      "apogee_km": 550.9972970554618,
      "perigee_km": 547.9006661216918,
      "latitude_deg": 2.2424639725817286e-05,
      "longitude_deg": -99.02256147668466,
      "height_km": 552.4806081184282,
      "semi_major_axis_km": 6927.585981588577,
      "eccentricity": 0.0002235,
      "inclination_deg": 97.6016,
      "raan_deg": 311.0002,
      "arg_perigee_deg": 88.8925,
      "mean_anomaly_deg": 271.2558,
      "mean_motion_rev_day": 15.05670269
    },
    {
      "epoch": "2026-04-05T14:23:53.392992Z",
      "apogee_km": 550.9113860654397,
      "perigee_km": 547.9450026492159,
      "latitude_deg": -8.261794189612099e-05,
      "longitude_deg": -97.89256432668174,
      "height_km": 552.4276564796564,
      "semi_major_axis_km": 6927.5651943573275,
      "eccentricity": 0.0002141,
      "inclination_deg": 97.6022,
      "raan_deg": 311.9831,
      "arg_perigee_deg": 87.5941,
      "mean_anomaly_deg": 272.553,
      "mean_motion_rev_day": 15.05677046
    },
    {
      "epoch": "2026-04-05T14:23:53.393856Z",
      "apogee_km": 550.9113860654397,
      "perigee_km": 547.9450026492159,
      "latitude_deg": -8.261794184199336e-05,
      "longitude_deg": -97.8924679365375,
      "height_km": 552.4276564796544,
      "semi_major_axis_km": 6927.5651943573275,
      "eccentricity": 0.0002141,
      "inclination_deg": 97.6022,
      "raan_deg": 311.9832,
      "arg_perigee_deg": 87.5941,
      "mean_anomaly_deg": 272.553,
      "mean_motion_rev_day": 15.05677046
    },
    {
      "epoch": "2026-04-06T04:45:10.905696Z",
      "apogee_km": 550.7255884025017,
      "perigee_km": 548.1763745770731,
      "latitude_deg": 4.482023504116701e-05,
      "longitude_deg": 46.78401460677985,
      "height_km": 552.5085561887104,
      "semi_major_axis_km": 6927.587981489787,
      "eccentricity": 0.00018399,
      "inclination_deg": 97.6025,
      "raan_deg": 312.5722,
      "arg_perigee_deg": 89.791,
      "mean_anomaly_deg": 270.3528,
      "mean_motion_rev_day": 15.05669617
    },
    {
      "epoch": "2026-04-07T12:39:10.805760Z",
      "apogee_km": 551.0327269370882,
      "perigee_km": 547.9680787028283,
      "latitude_deg": -1.0404678240611913e-05,
      "longitude_deg": -71.71595050638648,
      "height_km": 552.6004712957174,
      "semi_major_axis_km": 6927.637402819958,
      "eccentricity": 0.00022119,
      "inclination_deg": 97.6022,
      "raan_deg": 313.8819,
      "arg_perigee_deg": 91.4395,
      "mean_anomaly_deg": 268.7085,
      "mean_motion_rev_day": 15.05653505
    },
    {
      "epoch": "2026-04-07T20:37:40.835424Z",
      "apogee_km": 551.0796562042897,
      "perigee_km": 547.9151128174453,
      "latitude_deg": -3.84094660575697e-05,
      "longitude_deg": 168.65900668585223,
      "height_km": 552.5932497507007,
      "semi_major_axis_km": 6927.634384510868,
      "eccentricity": 0.0002284,
      "inclination_deg": 97.6018,
      "raan_deg": 314.2095,
      "arg_perigee_deg": 91.2459,
      "mean_anomaly_deg": 268.9029,
      "mean_motion_rev_day": 15.05654489
    },
    {
      "epoch": "2026-04-08T14:10:22.922976Z",
      "apogee_km": 551.0565294581793,
      "perigee_km": 547.961257273023,
      "latitude_deg": 2.96351744802532e-05,
      "longitude_deg": -94.51651792667366,
      "height_km": 552.5790541070171,
      "semi_major_axis_km": 6927.6458933656,
      "eccentricity": 0.0002234,
      "inclination_deg": 97.6022,
      "raan_deg": 314.9299,
      "arg_perigee_deg": 90.32,
      "mean_anomaly_deg": 269.8283,
      "mean_motion_rev_day": 15.05650737
    },
    {
      "epoch": "2026-04-09T12:30:10.983744Z",
      "apogee_km": 551.0582064114442,
      "perigee_km": 547.9532369435883,
      "latitude_deg": 5.098651537438501e-05,
      "longitude_deg": -69.46753794776419,
      "height_km": 552.5516954069014,
      "semi_major_axis_km": 6927.6427216775155,
      "eccentricity": 0.0002241,
      "inclination_deg": 97.6026,
      "raan_deg": 315.8462,
      "arg_perigee_deg": 89.4275,
      "mean_anomaly_deg": 270.7209,
      "mean_motion_rev_day": 15.05651771
    },
    {
      "epoch": "2026-04-10T12:25:41.045952Z",
      "apogee_km": 551.0771662697825,
      "perigee_km": 547.9292465599874,
      "latitude_deg": -2.2877307576601925e-06,
      "longitude_deg": -68.34275825045447,
      "height_km": 552.5407354911401,
      "semi_major_axis_km": 6927.640206414884,
      "eccentricity": 0.0002272,
      "inclination_deg": 97.6023,
      "raan_deg": 316.8288,
      "arg_perigee_deg": 89.1293,
      "mean_anomaly_deg": 271.0194,
      "mean_motion_rev_day": 15.05652591
    },
    {
      "epoch": "2026-04-11T20:19:41.028096Z",
      "apogee_km": 551.1053296558412,
      "perigee_km": 547.8992181998674,
      "latitude_deg": 1.590631916343158e-05,
      "longitude_deg": 173.15732502165224,
      "height_km": 552.5411938237694,
      "semi_major_axis_km": 6927.6392739278535,
      "eccentricity": 0.0002314,
      "inclination_deg": 97.6023,
      "raan_deg": 318.1389,
      "arg_perigee_deg": 89.1976,
      "mean_anomaly_deg": 270.9516,
      "mean_motion_rev_day": 15.05652895
    },
    {
      "epoch": "2026-04-12T20:15:11.010816Z",
      "apogee_km": 551.0281780582673,
      "perigee_km": 547.9837560799597,
      "latitude_deg": -4.300934956100272e-05,
      "longitude_deg": 174.28213953444074,
      "height_km": 552.5345600203381,
      "semi_major_axis_km": 6927.642967069113,
      "eccentricity": 0.00021973,
      "inclination_deg": 97.6022,
      "raan_deg": 319.1212,
      "arg_perigee_deg": 88.758,
      "mean_anomaly_deg": 271.3898,
      "mean_motion_rev_day": 15.05651691
    }
  ]
}